{"type": "FeatureCollection", "features": [ {"type": "Feature", "properties": {"norad_id": 31058, "name": "FENGYUN 1C DEB", "group": "fengyun-1c-debris", "lat": 31.986974987462833, "lon": 117.91934612846698, "alt_km": 581.8058059617733, "timestamp": "2025-12-09T05:43:21.006311+00:00", "meta": {"OBJECT_NAME": "FENGYUN 1C DEB", "OBJECT_ID": "1999-025BFC", "EPOCH": "2025-12-08T14:25:24.311712", "MEAN_MOTION": 14.76218072, "ECCENTRICITY": 0.0095083, "INCLINATION": 99.5657, "RA_OF_ASC_NODE": 291.1199, "ARG_OF_PERICENTER": 118.6638, "MEAN_ANOMALY": 242.4167, "EPHEMERIS_TYPE": 0, "CLASSIFICATION_TYPE": "U", "NORAD_CAT_ID": 31058, "ELEMENT_SET_NO": 999, "REV_AT_EPOCH": 99488, "BSTAR": 0.0015712, "MEAN_MOTION_DOT": 0.00011654, "MEAN_MOTION_DDOT": 0}, "tle": {"line1": "1 31058U 99025BFC 25342.60097583  .00011654  00000+0  15712-2 0  9990", "line2": "2 31058  99.5657 291.1199 0095083 118.6638 242.4167 14.76218072994882"}}, "geometry": {"type": "Point", "coordinates": [117.91934612846698, 31.986974987462833]}}, {"type": "Feature", "properties": {"norad_id": 31062, "name": "FENGYUN 1C DEB", "group": "fengyun-1c-debris", "lat": 36.784267375927676, "lon": -7.378163186933485, "alt_km": 1102.4705535427756, "timestamp": "2025-12-09T05:43:21.006321+00:00", "meta": {"OBJECT_NAME": "FENGYUN 1C DEB", "OBJECT_ID": "1999-025BFG", "EPOCH": "2025-12-08T18:38:34.024416", "MEAN_MOTION": 13.75688586, "ECCENTRICITY": 0.0171744, "INCLINATION": 98.9968, "RA_OF_ASC_NODE": 165.3833, "ARG_OF_PERICENTER": 328.4178, "MEAN_ANOMALY": 48.9055, "EPHEMERIS_TYPE": 0, "CLASSIFICATION_TYPE": "U", "NORAD_CAT_ID": 31062, "ELEMENT_SET_NO": 999, "REV_AT_EPOCH": 94179, "BSTAR": 0.00045822, "MEAN_MOTION_DOT": 4.51e-06, "MEAN_MOTION_DDOT": 0}, "tle": {"line1": "1 31062U 99025BFG 25342.77678269  .00000451  00000+0  45822-3 0  9998", "line2": "2 31062  98.9968 165.3833 0171744 328.4178  48.9055 13.75688586941797"}}, "geometry": {"type": "Point", "coordinates": [-7.378163186933485, 36.784267375927676]}}, {"type": "Feature", "properties": {"norad_id": 31064, "name": "FENGYUN 1C DEB", "group": "fengyun-1c-debris", "lat": 70.91168822757474, "lon": -59.82796450854148, "alt_km": 724.0964060164752, "timestamp": "2025-12-09T05:43:21.006332+00:00", "meta": {"OBJECT_NAME": "FENGYUN 1C DEB", "OBJECT_ID": "1999-025BFJ", "EPOCH": "2025-12-08T16:43:11.100000", "MEAN_MOTION": 14.22122105, "ECCENTRICITY": 0.0241784, "INCLINATION": 98.5734, "RA_OF_ASC_NODE": 325.4897, "ARG_OF_PERICENTER": 13.3545, "MEAN_ANOMALY": 165.0024, "EPHEMERIS_TYPE": 0, "CLASSIFICATION_TYPE": "U", "NORAD_CAT_ID": 31064, "ELEMENT_SET_NO": 999, "REV_AT_EPOCH": 97197, "BSTAR": 0.00072234, "MEAN_MOTION_DOT": 2.109e-05, "MEAN_MOTION_DDOT": 0}, "tle": {"line1": "1 31064U 99025BFJ 25342.69665625  .00002109  00000+0  72234-3 0  9992", "line2": "2 31064  98.5734 325.4897 0241784  13.3545 165.0024 14.22122105971978"}}, "geometry": {"type": "Point", "coordinates": [-59.82796450854148, 70.91168822757474]}}, {"type": "Feature", "properties": {"norad_id": 31065, "name": "FENGYUN 1C DEB", "group": "fengyun-1c-debris", "lat": -73.51637986024923, "lon": 32.67385459345005, "alt_km": 816.8133295842499, "timestamp": "2025-12-09T05:43:21.006342+00:00", "meta": {"OBJECT_NAME": "FENGYUN 1C DEB", "OBJECT_ID": "1999-025BFK", "EPOCH": "2025-12-06T07:27:19.187136", "MEAN_MOTION": 14.28133562, "ECCENTRICITY": 0.003548, "INCLINATION": 98.4659, "RA_OF_ASC_NODE": 359.6143, "ARG_OF_PERICENTER": 50.1744, "MEAN_ANOMALY": 310.2552, "EPHEMERIS_TYPE": 0, "CLASSIFICATION_TYPE": "U", "NORAD_CAT_ID": 31065, "ELEMENT_SET_NO": 999, "REV_AT_EPOCH": 64486, "BSTAR": 0.0016485265, "MEAN_MOTION_DOT": 4.087e-05, "MEAN_MOTION_DDOT": 0}, "tle": {"line1": "1 31065U 99025BFK 25340.31063874  .00004087  00000+0  16485-2 0  9990", "line2": "2 31065  98.4659 359.6143 0035480  50.1744 310.2552 14.28133562644861"}}, "geometry": {"type": "Point", "coordinates": [32.67385459345005, -73.51637986024923]}}, {"type": "Feature", "properties": {"norad_id": 31068, "name": "FENGYUN 1C DEB", "group": "fengyun-1c-debris", "lat": -24.675216219452494, "lon": 141.554889202193, "alt_km": 838.3249084150457, "timestamp": "2025-12-09T05:43:21.006352+00:00", "meta": {"OBJECT_NAME": "FENGYUN 1C DEB", "OBJECT_ID": "1999-025BFN", "EPOCH": "2025-12-08T16:50:26.087712", "MEAN_MOTION": 14.0918717, "ECCENTRICITY": 0.0165563, "INCLINATION": 98.6287, "RA_OF_ASC_NODE": 325.0408, "ARG_OF_PERICENTER": 129.6248, "MEAN_ANOMALY": 231.9669, "EPHEMERIS_TYPE": 0, "CLASSIFICATION_TYPE": "U", "NORAD_CAT_ID": 31068, "ELEMENT_SET_NO": 999, "REV_AT_EPOCH": 96298, "BSTAR": 0.00020954, "MEAN_MOTION_DOT": 3.73e-06, "MEAN_MOTION_DDOT": 0}, "tle": {"line1": "1 31068U 99025BFN 25342.70169083  .00000373  00000+0  20954-3 0  9998", "line2": "2 31068  98.6287 325.0408 0165563 129.6248 231.9669 14.09187170962988"}}, "geometry": {"type": "Point", "coordinates": [141.554889202193, -24.675216219452494]}}, {"type": "Feature", "properties": {"norad_id": 31069, "name": "FENGYUN 1C DEB", "group": "fengyun-1c-debris", "lat": -47.376956045496065, "lon": 153.23102149982606, "alt_km": 762.4101153226729, "timestamp": "2025-12-09T05:43:21.006363+00:00", "meta": {"OBJECT_NAME": "FENGYUN 1C DEB", "OBJECT_ID": "1999-025BFP", "EPOCH": "2025-12-07T04:30:06.594048", "MEAN_MOTION": 14.57048672, "ECCENTRICITY": 0.01047006, "INCLINATION": 99.0995, "RA_OF_ASC_NODE": 140.963, "ARG_OF_PERICENTER": 94.1529, "MEAN_ANOMALY": 267.1641, "EPHEMERIS_TYPE": 0, "CLASSIFICATION_TYPE": "U", "NORAD_CAT_ID": 31069, "ELEMENT_SET_NO": 999, "REV_AT_EPOCH": 98605, "BSTAR": 0.0012606764, "MEAN_MOTION_DOT": 6.061e-05, "MEAN_MOTION_DDOT": 0}, "tle": {"line1": "1 31069U 99025BFP 25341.18757632  .00006061  00000+0  12607-2 0  9998", "line2": "2 31069  99.0995 140.9630 0104700  94.1529 267.1641 14.57048672986056"}}, "geometry": {"type": "Point", "coordinates": [153.23102149982606, -47.376956045496065]}}, {"type": "Feature", "properties": {"norad_id": 31071, "name": "FENGYUN 1C DEB", "group": "fengyun-1c-debris", "lat": 71.46533904999724, "lon": -90.92921566993624, "alt_km": 749.350335776855, "timestamp": "2025-12-09T05:43:21.006373+00:00", "meta": {"OBJECT_NAME": "FENGYUN 1C DEB", "OBJECT_ID": "1999-025BFR", "EPOCH": "2025-12-07T11:54:11.836512", "MEAN_MOTION": 14.52560529, "ECCENTRICITY": 0.0055418, "INCLINATION": 99.0418, "RA_OF_ASC_NODE": 58.8382, "ARG_OF_PERICENTER": 297.8967, "MEAN_ANOMALY": 61.662, "EPHEMERIS_TYPE": 0, "CLASSIFICATION_TYPE": "U", "NORAD_CAT_ID": 31071, "ELEMENT_SET_NO": 999, "REV_AT_EPOCH": 65418, "BSTAR": 0.0018151053, "MEAN_MOTION_DOT": 7.524e-05, "MEAN_MOTION_DDOT": 0}, "tle": {"line1": "1 31071U 99025BFR 25341.49597033  .00007524  00000+0  18151-2 0  9997", "line2": "2 31071  99.0418  58.8382 0055418 297.8967  61.6620 14.52560529654184"}}, "geometry": {"type": "Point", "coordinates": [-90.92921566993624, 71.46533904999724]}}, {"type": "Feature", "properties": {"norad_id": 31072, "name": "FENGYUN 1C DEB", "group": "fengyun-1c-debris", "lat": -50.412483431378774, "lon": -0.13311425430989177, "alt_km": 954.5475369087308, "timestamp": "2025-12-09T05:43:21.006384+00:00", "meta": {"OBJECT_NAME": "FENGYUN 1C DEB", "OBJECT_ID": "1999-025BFS", "EPOCH": "2025-12-08T19:51:43.345728", "MEAN_MOTION": 14.25465546, "ECCENTRICITY": 0.0210469, "INCLINATION": 99.3326, "RA_OF_ASC_NODE": 347.9588, "ARG_OF_PERICENTER": 108.8832, "MEAN_ANOMALY": 253.5293, "EPHEMERIS_TYPE": 0, "CLASSIFICATION_TYPE": "U", "NORAD_CAT_ID": 31072, "ELEMENT_SET_NO": 999, "REV_AT_EPOCH": 96587, "BSTAR": 0.00098113, "MEAN_MOTION_DOT": 2.871e-05, "MEAN_MOTION_DDOT": 0}, "tle": {"line1": "1 31072U 99025BFS 25342.82758502  .00002871  00000+0  98113-3 0  9993", "line2": "2 31072  99.3326 347.9588 0210469 108.8832 253.5293 14.25465546965879"}}, "geometry": {"type": "Point", "coordinates": [-0.13311425430989177, -50.412483431378774]}}, {"type": "Feature", "properties": {"norad_id": 31073, "name": "FENGYUN 1C DEB", "group": "fengyun-1c-debris", "lat": -46.356963347058425, "lon": -157.43703192311, "alt_km": 784.6188115989135, "timestamp": "2025-12-09T05:43:21.006394+00:00", "meta": {"OBJECT_NAME": "FENGYUN 1C DEB", "OBJECT_ID": "1999-025BFT", "EPOCH": "2025-12-08T01:17:22.793856", "MEAN_MOTION": 14.24757918, "ECCENTRICITY": 0.00457014, "INCLINATION": 99.2207, "RA_OF_ASC_NODE": 191.5131, "ARG_OF_PERICENTER": 298.9936, "MEAN_ANOMALY": 60.6665, "EPHEMERIS_TYPE": 0, "CLASSIFICATION_TYPE": "U", "NORAD_CAT_ID": 31073, "ELEMENT_SET_NO": 999, "REV_AT_EPOCH": 97016, "BSTAR": 0.0017067499, "MEAN_MOTION_DOT": 3.973e-05, "MEAN_MOTION_DDOT": 0}, "tle": {"line1": "1 31073U 99025BFT 25342.05373604  .00003973  00000+0  17067-2 0  9997", "line2": "2 31073  99.2207 191.5131 0045701 298.9936  60.6665 14.24757918970169"}}, "geometry": {"type": "Point", "coordinates": [-157.43703192311, -46.356963347058425]}}, {"type": "Feature", "properties": {"norad_id": 31074, "name": "FENGYUN 1C DEB", "group": "fengyun-1c-debris", "lat": 16.57249415493655, "lon": -104.4662914109319, "alt_km": 857.4805149961512, "timestamp": "2025-12-09T05:43:21.006404+00:00", "meta": {"OBJECT_NAME": "FENGYUN 1C DEB", "OBJECT_ID": "1999-025BFU", "EPOCH": "2025-12-08T05:52:14.706624", "MEAN_MOTION": 14.14172356, "ECCENTRICITY": 0.00887016, "INCLINATION": 98.9582, "RA_OF_ASC_NODE": 257.228, "ARG_OF_PERICENTER": 278.5236, "MEAN_ANOMALY": 80.5892, "EPHEMERIS_TYPE": 0, "CLASSIFICATION_TYPE": "U", "NORAD_CAT_ID": 31074, "ELEMENT_SET_NO": 999, "REV_AT_EPOCH": 95516, "BSTAR": 0.0032893959, "MEAN_MOTION_DOT": 6.469e-05, "MEAN_MOTION_DDOT": 0}, "tle": {"line1": "1 31074U 99025BFU 25342.24461466  .00006469  00000+0  32894-2 0  9991", "line2": "2 31074  98.9582 257.2280 0088701 278.5236  80.5892 14.14172356955163"}}, "geometry": {"type": "Point", "coordinates": [-104.4662914109319, 16.57249415493655]}}]}